{
  "type": "FeatureCollection",
  "features": [
    {
      "type": "Feature",
      "properties": {
        "norad_id": 54259,
        "name": "EUTELSAT 10B",
        "group": "eutelsat",
        "lat": 0.05364123725111227,
        "lon": 174.03508710557796,
        "alt_km": 35783.291345368874,
        "timestamp": "2025-12-09T05:43:20.399582+00:00",
        "meta_object_name": "EUTELSAT 10B",
        "meta_object_id": "2022-157A",
        "meta_epoch": "2025-12-08T18:47:16.055808",
        "meta_mean_motion": 1.00268735,
        "meta_eccentricity": 8.6e-05,
        "meta_inclination": 0.0629,
        "meta_ra_of_asc_node": 99.97,
        "meta_arg_of_pericenter": 78.0476,
        "meta_mean_anomaly": 191.5594,
        "meta_ephemeris_type": 0,
        "meta_classification_type": "U",
        "meta_norad_cat_id": 54259,
        "meta_element_set_no": 999,
        "meta_rev_at_epoch": 1111,
        "meta_bstar": 0,
        "meta_mean_motion_dot": 7e-07,
        "meta_mean_motion_ddot": 0,
        "tle_line1": "1 54259U 22157A   25342.78282472  .00000070  00000+0  00000+0 0  9993",
        "tle_line2": "2 54259   0.0629  99.9700 0000860  78.0476 191.5594  1.00268735 11114"
      },
      "geometry": {
        "type": "Point",
        "coordinates": [
          174.03508710557796,
          0.05364123725111227
        ]
      }
    },
    {
      "type": "Feature",
      "properties": {
        "norad_id": 59346,
        "name": "EUTELSAT 36D",
        "group": "eutelsat",
        "lat": -0.02874592059280635,
        "lon": -160.07626559213,
        "alt_km": 35787.0371026145,
        "timestamp": "2025-12-09T05:43:20.399593+00:00",
        "meta_object_name": "EUTELSAT 36D",
        "meta_object_id": "2024-059A",
        "meta_epoch": "2025-12-08T13:46:36.253344",
        "meta_mean_motion": 1.00268699,
        "meta_eccentricity": 3.58e-05,
        "meta_inclination": 0.0187,
        "meta_ra_of_asc_node": 325.0021,
        "meta_arg_of_pericenter": 331.7781,
        "meta_mean_anomaly": 23.3194,
        "meta_ephemeris_type": 0,
        "meta_classification_type": "U",
        "meta_norad_cat_id": 59346,
        "meta_element_set_no": 999,
        "meta_rev_at_epoch": 623,
        "meta_bstar": 0,
        "meta_mean_motion_dot": 1.58e-06,
        "meta_mean_motion_ddot": 0,
        "tle_line1": "1 59346U 24059A   25342.57403071  .00000158  00000+0  00000+0 0  9992",
        "tle_line2": "2 59346   0.0187 325.0021 0000358 331.7781  23.3194  1.00268699  6238"
      },
      "geometry": {
        "type": "Point",
        "coordinates": [
          -160.07626559213,
          -0.02874592059280635
        ]
      }
    }
  ]
}